[{"OBJECT_NAME":"STARLINK-3252","OBJECT_ID":"2021-115K","EPOCH":"2025-07-31T20:53:12.878880","MEAN_MOTION":15.08840226,"ECCENTRICITY":0.0001402,"INCLINATION":53.2182,"RA_OF_ASC_NODE":70.4183,"ARG_OF_PERICENTER":91.0349,"MEAN_ANOMALY":269.0803,"EPHEMERIS_TYPE":0,"CLASSIFICATION_TYPE":"U","NORAD_CAT_ID":49733,"ELEMENT_SET_NO":999,"REV_AT_EPOCH":20316,"BSTAR":-1.5616e-5,"MEAN_MOTION_DOT":-5.36e-6,"MEAN_MOTION_DDOT":0},{"OBJECT_NAME":"STARLINK-3238","OBJECT_ID":"2021-115L","EPOCH":"2025-07-31T21:21:03.133440","MEAN_MOTION":15.08813044,"ECCENTRICITY":0.0001583,"INCLINATION":53.219,"RA_OF_ASC_NODE":60.3553,"ARG_OF_PERICENTER":96.1668,"MEAN_ANOMALY":263.9505,"EPHEMERIS_TYPE":0,"CLASSIFICATION_TYPE":"U","NORAD_CAT_ID":49734,"ELEMENT_SET_NO":999,"REV_AT_EPOCH":20220,"BSTAR":0.00029656,"MEAN_MOTION_DOT":4.431e-5,"MEAN_MOTION_DDOT":0},{"OBJECT_NAME":"STARLINK-3113","OBJECT_ID":"2021-115M","EPOCH":"2025-07-31T20:42:36.065088","MEAN_MOTION":15.08837942,"ECCENTRICITY":0.0001392,"INCLINATION":53.218,"RA_OF_ASC_NODE":70.3345,"ARG_OF_PERICENTER":83.1407,"MEAN_ANOMALY":276.9743,"EPHEMERIS_TYPE":0,"CLASSIFICATION_TYPE":"U","NORAD_CAT_ID":49735,"ELEMENT_SET_NO":999,"REV_AT_EPOCH":20205,"BSTAR":6.0031e-5,"MEAN_MOTION_DOT":6.68e-6,"MEAN_MOTION_DDOT":0},{"OBJECT_NAME":"STARLINK-3148","OBJECT_ID":"2021-115N","EPOCH":"2025-07-31T21:15:41.288256","MEAN_MOTION":15.08859639,"ECCENTRICITY":0.0001379,"INCLINATION":53.2174,"RA_OF_ASC_NODE":60.2298,"ARG_OF_PERICENTER":89.6415,"MEAN_ANOMALY":270.4735,"EPHEMERIS_TYPE":0,"CLASSIFICATION_TYPE":"U","NORAD_CAT_ID":49736,"ELEMENT_SET_NO":999,"REV_AT_EPOCH":20331,"BSTAR":0.00022466,"MEAN_MOTION_DOT":3.291e-5,"MEAN_MOTION_DDOT":0},{"OBJECT_NAME":"STARLINK-3225","OBJECT_ID":"2021-115P","EPOCH":"2025-07-31T21:26:20.475456","MEAN_MOTION":15.08834429,"ECCENTRICITY":0.0001364,"INCLINATION":53.2174,"RA_OF_ASC_NODE":60.3133,"ARG_OF_PERICENTER":89.5118,"MEAN_ANOMALY":270.603,"EPHEMERIS_TYPE":0,"CLASSIFICATION_TYPE":"U","NORAD_CAT_ID":49737,"ELEMENT_SET_NO":999,"REV_AT_EPOCH":20220,"BSTAR":1.3349e-6,"MEAN_MOTION_DOT":-2.67e-6,"MEAN_MOTION_DDOT":0},{"OBJECT_NAME":"STARLINK-3143","OBJECT_ID":"2021-115Q","EPOCH":"2025-07-31T20:29:27.536352","MEAN_MOTION":15.0884226,"ECCENTRICITY":0.0001363,"INCLINATION":53.2174,"RA_OF_ASC_NODE":60.698,"ARG_OF_PERICENTER":89.3311,"MEAN_ANOMALY":270.7838,"EPHEMERIS_TYPE":0,"CLASSIFICATION_TYPE":"U","NORAD_CAT_ID":49738,"ELEMENT_SET_NO":999,"REV_AT_EPOCH":20219,"BSTAR":-8.6219e-6,"MEAN_MOTION_DOT":-4.25e-6,"MEAN_MOTION_DDOT":0},{"OBJECT_NAME":"STARLINK-3155","OBJECT_ID":"2021-115R","EPOCH":"2025-07-31T21:09:06.720192","MEAN_MOTION":15.08838688,"ECCENTRICITY":0.0001466,"INCLINATION":53.2185,"RA_OF_ASC_NODE":70.3688,"ARG_OF_PERICENTER":100.3019,"MEAN_ANOMALY":259.8138,"EPHEMERIS_TYPE":0,"CLASSIFICATION_TYPE":"U","NORAD_CAT_ID":49739,"ELEMENT_SET_NO":999,"REV_AT_EPOCH":20205,"BSTAR":4.6494e-6,"MEAN_MOTION_DOT":-2.14e-6,"MEAN_MOTION_DDOT":0},{"OBJECT_NAME":"STARLINK-3226","OBJECT_ID":"2021-115S","EPOCH":"2025-07-31T20:13:30.982080","MEAN_MOTION":15.08843806,"ECCENTRICITY":0.0001344,"INCLINATION":53.2178,"RA_OF_ASC_NODE":60.5149,"ARG_OF_PERICENTER":85.6469,"MEAN_ANOMALY":274.4677,"EPHEMERIS_TYPE":0,"CLASSIFICATION_TYPE":"U","NORAD_CAT_ID":49740,"ELEMENT_SET_NO":999,"REV_AT_EPOCH":20219,"BSTAR":9.6069e-6,"MEAN_MOTION_DOT":-1.35e-6,"MEAN_MOTION_DDOT":0},{"OBJECT_NAME":"STARLINK-3244","OBJECT_ID":"2021-115T","EPOCH":"2025-07-31T20:08:13.550208","MEAN_MOTION":15.08842182,"ECCENTRICITY":0.0001563,"INCLINATION":53.219,"RA_OF_ASC_NODE":60.5665,"ARG_OF_PERICENTER":86.1448,"MEAN_ANOMALY":273.9723,"EPHEMERIS_TYPE":0,"CLASSIFICATION_TYPE":"U","NORAD_CAT_ID":49741,"ELEMENT_SET_NO":999,"REV_AT_EPOCH":20219,"BSTAR":1.7034e-5,"MEAN_MOTION_DOT":-1.7e-7,"MEAN_MOTION_DDOT":0},{"OBJECT_NAME":"STARLINK-3202","OBJECT_ID":"2021-115U","EPOCH":"2025-07-31T20:28:02.138592","MEAN_MOTION":15.08844696,"ECCENTRICITY":0.0001371,"INCLINATION":53.2174,"RA_OF_ASC_NODE":60.4959,"ARG_OF_PERICENTER":93.3309,"MEAN_ANOMALY":266.784,"EPHEMERIS_TYPE":0,"CLASSIFICATION_TYPE":"U","NORAD_CAT_ID":49742,"ELEMENT_SET_NO":999,"REV_AT_EPOCH":20219,"BSTAR":7.4072e-5,"MEAN_MOTION_DOT":8.91e-6,"MEAN_MOTION_DDOT":0},{"OBJECT_NAME":"STARLINK-3239","OBJECT_ID":"2021-115V","EPOCH":"2025-07-31T21:38:18.099168","MEAN_MOTION":15.08840167,"ECCENTRICITY":0.0001408,"INCLINATION":53.2187,"RA_OF_ASC_NODE":60.2113,"ARG_OF_PERICENTER":81.7891,"MEAN_ANOMALY":278.3261,"EPHEMERIS_TYPE":0,"CLASSIFICATION_TYPE":"U","NORAD_CAT_ID":49743,"ELEMENT_SET_NO":999,"REV_AT_EPOCH":20220,"BSTAR":4.7771e-6,"MEAN_MOTION_DOT":-2.12e-6,"MEAN_MOTION_DDOT":0},{"OBJECT_NAME":"STARLINK-3231","OBJECT_ID":"2021-115W","EPOCH":"2025-07-31T20:24:06.248448","MEAN_MOTION":15.08838915,"ECCENTRICITY":0.0001317,"INCLINATION":53.2182,"RA_OF_ASC_NODE":60.4052,"ARG_OF_PERICENTER":92.5773,"MEAN_ANOMALY":267.537,"EPHEMERIS_TYPE":0,"CLASSIFICATION_TYPE":"U","NORAD_CAT_ID":49744,"ELEMENT_SET_NO":999,"REV_AT_EPOCH":20219,"BSTAR":1.5913e-5,"MEAN_MOTION_DOT":-3.5e-7,"MEAN_MOTION_DDOT":0},{"OBJECT_NAME":"STARLINK-3241","OBJECT_ID":"2021-115X","EPOCH":"2025-07-31T20:18:49.091328","MEAN_MOTION":15.08841316,"ECCENTRICITY":0.0001362,"INCLINATION":53.2178,"RA_OF_ASC_NODE":60.5005,"ARG_OF_PERICENTER":86.7489,"MEAN_ANOMALY":273.3658,"EPHEMERIS_TYPE":0,"CLASSIFICATION_TYPE":"U","NORAD_CAT_ID":49745,"ELEMENT_SET_NO":999,"REV_AT_EPOCH":20219,"BSTAR":2.947e-5,"MEAN_MOTION_DOT":1.81e-6,"MEAN_MOTION_DDOT":0},{"OBJECT_NAME":"STARLINK-3233","OBJECT_ID":"2021-115Y","EPOCH":"2025-07-31T20:49:14.811456","MEAN_MOTION":15.08826612,"ECCENTRICITY":0.0001136,"INCLINATION":53.2176,"RA_OF_ASC_NODE":60.432,"ARG_OF_PERICENTER":98.5667,"MEAN_ANOMALY":261.5454,"EPHEMERIS_TYPE":0,"CLASSIFICATION_TYPE":"U","NORAD_CAT_ID":49746,"ELEMENT_SET_NO":999,"REV_AT_EPOCH":20219,"BSTAR":-0.00010693,"MEAN_MOTION_DOT":-1.989e-5,"MEAN_MOTION_DDOT":0},{"OBJECT_NAME":"STARLINK-3247","OBJECT_ID":"2021-115Z","EPOCH":"2025-07-31T20:33:20.957184","MEAN_MOTION":15.08834011,"ECCENTRICITY":0.0001579,"INCLINATION":53.218,"RA_OF_ASC_NODE":60.4796,"ARG_OF_PERICENTER":99.3218,"MEAN_ANOMALY":260.7952,"EPHEMERIS_TYPE":0,"CLASSIFICATION_TYPE":"U","NORAD_CAT_ID":49747,"ELEMENT_SET_NO":999,"REV_AT_EPOCH":20330,"BSTAR":-5.3799e-5,"MEAN_MOTION_DOT":-1.144e-5,"MEAN_MOTION_DDOT":0},{"OBJECT_NAME":"STARLINK-3248","OBJECT_ID":"2021-115AA","EPOCH":"2025-07-31T21:36:51.542784","MEAN_MOTION":15.08840265,"ECCENTRICITY":0.0001519,"INCLINATION":53.2182,"RA_OF_ASC_NODE":59.8573,"ARG_OF_PERICENTER":81.6568,"MEAN_ANOMALY":278.4596,"EPHEMERIS_TYPE":0,"CLASSIFICATION_TYPE":"U","NORAD_CAT_ID":49748,"ELEMENT_SET_NO":999,"REV_AT_EPOCH":20221,"BSTAR":1.8842e-5,"MEAN_MOTION_DOT":1.2e-7,"MEAN_MOTION_DDOT":0},{"OBJECT_NAME":"STARLINK-3250","OBJECT_ID":"2021-115AB","EPOCH":"2025-07-31T21:17:09.517344","MEAN_MOTION":15.0883819,"ECCENTRICITY":0.0001329,"INCLINATION":53.2178,"RA_OF_ASC_NODE":60.584,"ARG_OF_PERICENTER":97.0563,"MEAN_ANOMALY":263.058,"EPHEMERIS_TYPE":0,"CLASSIFICATION_TYPE":"U","NORAD_CAT_ID":49749,"ELEMENT_SET_NO":999,"REV_AT_EPOCH":20330,"BSTAR":2.2349e-5,"MEAN_MOTION_DOT":6.8e-7,"MEAN_MOTION_DDOT":0}]
