STARLINK-3252           
1 49733U 21115K   25212.87028795 -.00000536  00000+0 -15616-4 0  9992
2 49733  53.2182  70.4183 0001402  91.0349 269.0803 15.08840226203161
STARLINK-3238           
1 49734U 21115L   25212.88961960  .00004431  00000+0  29656-3 0  9998
2 49734  53.2190  60.3553 0001583  96.1668 263.9505 15.08813044202204
STARLINK-3113           
1 49735U 21115M   25212.86291742  .00000668  00000+0  60031-4 0  9992
2 49735  53.2180  70.3345 0001392  83.1407 276.9743 15.08837942202053
STARLINK-3148           
1 49736U 21115N   25212.88589454  .00003291  00000+0  22466-3 0  9999
2 49736  53.2174  60.2298 0001379  89.6415 270.4735 15.08859639203314
STARLINK-3225           
1 49737U 21115P   25212.89329254 -.00000267  00000+0  13349-5 0  9994
2 49737  53.2174  60.3133 0001364  89.5118 270.6030 15.08834429202204
STARLINK-3143           
1 49738U 21115Q   25212.85379093 -.00000425  00000+0 -86219-5 0  9990
2 49738  53.2174  60.6980 0001363  89.3311 270.7838 15.08842260202197
STARLINK-3155           
1 49739U 21115R   25212.88132778 -.00000214  00000+0  46494-5 0  9997
2 49739  53.2185  70.3688 0001466 100.3019 259.8138 15.08838688202051
STARLINK-3226           
1 49740U 21115S   25212.84271970 -.00000135  00000+0  96069-5 0  9998
2 49740  53.2178  60.5149 0001344  85.6469 274.4677 15.08843806202191
STARLINK-3244           
1 49741U 21115T   25212.83904572 -.00000017  00000+0  17034-4 0  9992
2 49741  53.2190  60.5665 0001563  86.1448 273.9723 15.08842182202197
STARLINK-3202           
1 49742U 21115U   25212.85280253  .00000891  00000+0  74072-4 0  9992
2 49742  53.2174  60.4959 0001371  93.3309 266.7840 15.08844696202190
STARLINK-3239           
1 49743U 21115V   25212.90159837 -.00000212  00000+0  47771-5 0  9997
2 49743  53.2187  60.2113 0001408  81.7891 278.3261 15.08840167202200
STARLINK-3231           
1 49744U 21115W   25212.85007232 -.00000035  00000+0  15913-4 0  9998
2 49744  53.2182  60.4052 0001317  92.5773 267.5370 15.08838915202195
STARLINK-3241           
1 49745U 21115X   25212.84640152  .00000181  00000+0  29470-4 0  9996
2 49745  53.2178  60.5005 0001362  86.7489 273.3658 15.08841316202192
STARLINK-3233           
1 49746U 21115Y   25212.86753254 -.00001989  00000+0 -10693-3 0  9992
2 49746  53.2176  60.4320 0001136  98.5667 261.5454 15.08826612202193
STARLINK-3247           
1 49747U 21115Z   25212.85649256 -.00001144  00000+0 -53799-4 0  9996
2 49747  53.2180  60.4796 0001579  99.3218 260.7952 15.08834011203308
STARLINK-3248           
1 49748U 21115AA  25212.90059656  .00000012  00000+0  18842-4 0  9993
2 49748  53.2182  59.8573 0001519  81.6568 278.4596 15.08840265202219
STARLINK-3250           
1 49749U 21115AB  25212.88691571  .00000068  00000+0  22349-4 0  9997
2 49749  53.2178  60.5840 0001329  97.0563 263.0580 15.08838190203304
